[{"OBJECT_NAME":"STARLINK-36088","OBJECT_ID":"2025-286S","EPOCH":"2026-03-09T02:05:04.348032","MEAN_MOTION":15.30189307,"ECCENTRICITY":0.00011706,"INCLINATION":53.1617,"RA_OF_ASC_NODE":1.3021,"ARG_OF_PERICENTER":59.9837,"MEAN_ANOMALY":300.128,"EPHEMERIS_TYPE":0,"CLASSIFICATION_TYPE":"U","NORAD_CAT_ID":66941,"ELEMENT_SET_NO":999,"REV_AT_EPOCH":1532,"BSTAR":0.00075227699,"MEAN_MOTION_DOT":0.0002198,"MEAN_MOTION_DDOT":0},{"OBJECT_NAME":"FENGYUN 1C DEB","OBJECT_ID":"1999-025AJJ","EPOCH":"2026-03-09T18:40:58.380672","MEAN_MOTION":15.18672988,"ECCENTRICITY":0.00638575,"INCLINATION":98.7226,"RA_OF_ASC_NODE":259.4919,"ARG_OF_PERICENTER":168.3626,"MEAN_ANOMALY":191.9098,"EPHEMERIS_TYPE":0,"CLASSIFICATION_TYPE":"U","NORAD_CAT_ID":30520,"ELEMENT_SET_NO":999,"REV_AT_EPOCH":2360,"BSTAR":0.0014000942,"MEAN_MOTION_DOT":0.0003064,"MEAN_MOTION_DDOT":0}]
